TIANMU-1 07             
1 57399U 23101A   26065.57454230  .00008352  00000+0  29795-3 0  9991
2 57399  97.2728 118.5929 0004609 142.4105 217.7458 15.29118809145964
STARLINK-35755          
1 67163U 25303A   26068.09006811  .00039901  00000+0  14510-2 0  9997
2 67163  42.9997 314.0948 0001700 332.6659  27.4103 15.27594287 12646
