[{"OBJECT_NAME":"TIANMU-1 07","OBJECT_ID":"2023-101A","EPOCH":"2026-03-06T13:47:20.454720","MEAN_MOTION":15.29118809,"ECCENTRICITY":0.00046097,"INCLINATION":97.2728,"RA_OF_ASC_NODE":118.5929,"ARG_OF_PERICENTER":142.4105,"MEAN_ANOMALY":217.7458,"EPHEMERIS_TYPE":0,"CLASSIFICATION_TYPE":"U","NORAD_CAT_ID":57399,"ELEMENT_SET_NO":999,"REV_AT_EPOCH":14596,"BSTAR":0.00029794732,"MEAN_MOTION_DOT":8.352e-5,"MEAN_MOTION_DDOT":0},{"OBJECT_NAME":"STARLINK-35755","OBJECT_ID":"2025-303A","EPOCH":"2026-03-09T02:09:41.884704","MEAN_MOTION":15.27594287,"ECCENTRICITY":0.00017003,"INCLINATION":42.9997,"RA_OF_ASC_NODE":314.0948,"ARG_OF_PERICENTER":332.6659,"MEAN_ANOMALY":27.4103,"EPHEMERIS_TYPE":0,"CLASSIFICATION_TYPE":"U","NORAD_CAT_ID":67163,"ELEMENT_SET_NO":999,"REV_AT_EPOCH":1264,"BSTAR":0.001451006,"MEAN_MOTION_DOT":0.00039901,"MEAN_MOTION_DDOT":0}]
